[{"OBJECT_NAME":"LAPAN-A3","OBJECT_ID":"2016-040E","EPOCH":"2026-03-09T23:01:57.724896","MEAN_MOTION":15.3238951,"ECCENTRICITY":0.00109839,"INCLINATION":97.1488,"RA_OF_ASC_NODE":68.4254,"ARG_OF_PERICENTER":22.062,"MEAN_ANOMALY":338.1093,"EPHEMERIS_TYPE":0,"CLASSIFICATION_TYPE":"U","NORAD_CAT_ID":41603,"ELEMENT_SET_NO":999,"REV_AT_EPOCH":53961,"BSTAR":0.00017567445,"MEAN_MOTION_DOT":5.428e-5,"MEAN_MOTION_DDOT":0},{"OBJECT_NAME":"STARLINK-31793","OBJECT_ID":"2024-112R","EPOCH":"2026-03-09T10:29:55.180608","MEAN_MOTION":15.30197483,"ECCENTRICITY":0.00012851,"INCLINATION":53.1612,"RA_OF_ASC_NODE":79.4743,"ARG_OF_PERICENTER":88.3571,"MEAN_ANOMALY":271.7577,"EPHEMERIS_TYPE":0,"CLASSIFICATION_TYPE":"U","NORAD_CAT_ID":60053,"ELEMENT_SET_NO":999,"REV_AT_EPOCH":9855,"BSTAR":3.8984444e-5,"MEAN_MOTION_DOT":7.95e-6,"MEAN_MOTION_DDOT":0}]
